STARLINK-4186           
1 52880U 22062BC  25253.87703322 -.00000272  00000+0  98225-6 0  9997
2 52880  53.2174 101.3287 0001311  88.0214 272.0929 15.08837987178922
STARLINK-4181           
1 52882U 22062BE  25253.96162265  .00000825  00000+0  69912-4 0  9996
2 52882  53.2171 100.5281 0001311  94.9127 265.2015 15.08842537178944
STARLINK-4260           
1 52986U 22076A   25254.06839221 -.00000012  00000+0  17353-4 0  9992
2 52986  53.2159 180.4717 0001429  91.0877 269.0279 15.08840837175724
STARLINK-4259           
1 52987U 22076B   25254.24043005 -.00000184  00000+0  65214-5 0  9990
2 52987  53.2173 189.6989 0001511 109.6325 250.4831 15.08841565175614
STARLINK-4291           
1 52988U 22076C   25254.06470973  .00000914  00000+0  75492-4 0  9997
2 52988  53.2165 180.4901 0001317  87.8209 272.2934 15.08845918175725
STARLINK-4293           
1 52989U 22076D   25254.10427438 -.00000177  00000+0  70017-5 0  9992
2 52989  53.2164 190.3117 0001572  93.5627 266.5545 15.08840519175596
STARLINK-4286           
1 52990U 22076E   25254.23307212  .00004995  00000+0  33151-3 0  9992
2 52990  53.2160 189.7340 0001281  81.1225 278.9913 15.08858103175615
STARLINK-4285           
1 52991U 22076F   25254.22939669 -.00000569  00000+0 -17638-4 0  9997
2 52991  53.2172 189.7506 0001594  93.7903 266.3271 15.08846229175616
STARLINK-4269           
1 52992U 22076G   25254.09418567  .00000839  00000+0  70757-4 0  9991
2 52992  53.2153 190.3675 0001389  88.3453 271.7698 15.08847374175595
STARLINK-4264           
1 52993U 22076H   25254.19351784 -.00000514  00000+0 -14211-4 0  9995
2 52993  53.2176 179.9104 0001319  91.0140 269.1004 15.08839244175744
STARLINK-4256           
1 52994U 22076J   25254.18980469  .00004045  00000+0  27187-3 0  9999
2 52994  53.2184 179.9265 0001818  91.1524 268.9677 15.08873331175741
STARLINK-4296           
1 52995U 22076K   25254.18246752  .00000719  00000+0  63272-4 0  9990
2 52995  53.2173 179.9604 0001295  89.7207 270.3933 15.08849516175747
STARLINK-4295           
1 52996U 22076L   25254.21290583 -.00001987  00000+0 -10684-3 0  9994
2 52996  53.2163 180.1039 0001374  92.7342 267.3808 15.08828182175748
STARLINK-4254           
1 52998U 22076N   25254.17144533 -.00004155  00000+0 -24330-3 0  9997
2 52998  53.2172 179.9205 0001270  86.1399 273.9738 15.08813708175748
STARLINK-4217           
1 52999U 22076P   25254.16407382  .00000137  00000+0  26711-4 0  9991
2 52999  53.2180 180.0442 0001405  98.3702 261.7450 15.08839447175741
STARLINK-4194           
1 53000U 22076Q   25254.17880031  .00000339  00000+0  39412-4 0  9998
2 53000  53.2166 179.9765 0001515  86.4592 273.6573 15.08840282175748
