[{"OBJECT_NAME":"STARLINK-4186","OBJECT_ID":"2022-062BC","EPOCH":"2025-09-10T21:02:55.670208","MEAN_MOTION":15.08837987,"ECCENTRICITY":0.00013117,"INCLINATION":53.2174,"RA_OF_ASC_NODE":101.3287,"ARG_OF_PERICENTER":88.0214,"MEAN_ANOMALY":272.0929,"EPHEMERIS_TYPE":0,"CLASSIFICATION_TYPE":"U","NORAD_CAT_ID":52880,"ELEMENT_SET_NO":999,"REV_AT_EPOCH":17892,"BSTAR":9.82253e-7,"MEAN_MOTION_DOT":-2.72e-6,"MEAN_MOTION_DDOT":0},{"OBJECT_NAME":"STARLINK-4181","OBJECT_ID":"2022-062BE","EPOCH":"2025-09-10T23:04:44.196960","MEAN_MOTION":15.08842537,"ECCENTRICITY":0.00013118,"INCLINATION":53.2171,"RA_OF_ASC_NODE":100.5281,"ARG_OF_PERICENTER":94.9127,"MEAN_ANOMALY":265.2015,"EPHEMERIS_TYPE":0,"CLASSIFICATION_TYPE":"U","NORAD_CAT_ID":52882,"ELEMENT_SET_NO":999,"REV_AT_EPOCH":17894,"BSTAR":6.9912224e-5,"MEAN_MOTION_DOT":8.25e-6,"MEAN_MOTION_DDOT":0},{"OBJECT_NAME":"STARLINK-4260","OBJECT_ID":"2022-076A","EPOCH":"2025-09-11T01:38:29.086944","MEAN_MOTION":15.08840837,"ECCENTRICITY":0.00014299,"INCLINATION":53.2159,"RA_OF_ASC_NODE":180.4717,"ARG_OF_PERICENTER":91.0877,"MEAN_ANOMALY":269.0279,"EPHEMERIS_TYPE":0,"CLASSIFICATION_TYPE":"U","NORAD_CAT_ID":52986,"ELEMENT_SET_NO":999,"REV_AT_EPOCH":17572,"BSTAR":1.7353439e-5,"MEAN_MOTION_DOT":-1.2e-7,"MEAN_MOTION_DDOT":0},{"OBJECT_NAME":"STARLINK-4259","OBJECT_ID":"2022-076B","EPOCH":"2025-09-11T05:46:13.156320","MEAN_MOTION":15.08841565,"ECCENTRICITY":0.00015111,"INCLINATION":53.2173,"RA_OF_ASC_NODE":189.6989,"ARG_OF_PERICENTER":109.6325,"MEAN_ANOMALY":250.4831,"EPHEMERIS_TYPE":0,"CLASSIFICATION_TYPE":"U","NORAD_CAT_ID":52987,"ELEMENT_SET_NO":999,"REV_AT_EPOCH":17561,"BSTAR":6.521427e-6,"MEAN_MOTION_DOT":-1.84e-6,"MEAN_MOTION_DDOT":0},{"OBJECT_NAME":"STARLINK-4291","OBJECT_ID":"2022-076C","EPOCH":"2025-09-11T01:33:10.920672","MEAN_MOTION":15.08845918,"ECCENTRICITY":0.00013178,"INCLINATION":53.2165,"RA_OF_ASC_NODE":180.4901,"ARG_OF_PERICENTER":87.8209,"MEAN_ANOMALY":272.2934,"EPHEMERIS_TYPE":0,"CLASSIFICATION_TYPE":"U","NORAD_CAT_ID":52988,"ELEMENT_SET_NO":999,"REV_AT_EPOCH":17572,"BSTAR":7.5492389e-5,"MEAN_MOTION_DOT":9.14e-6,"MEAN_MOTION_DDOT":0},{"OBJECT_NAME":"STARLINK-4293","OBJECT_ID":"2022-076D","EPOCH":"2025-09-11T02:30:09.306432","MEAN_MOTION":15.08840519,"ECCENTRICITY":0.00015721,"INCLINATION":53.2164,"RA_OF_ASC_NODE":190.3117,"ARG_OF_PERICENTER":93.5627,"MEAN_ANOMALY":266.5545,"EPHEMERIS_TYPE":0,"CLASSIFICATION_TYPE":"U","NORAD_CAT_ID":52989,"ELEMENT_SET_NO":999,"REV_AT_EPOCH":17559,"BSTAR":7.001748e-6,"MEAN_MOTION_DOT":-1.77e-6,"MEAN_MOTION_DDOT":0},{"OBJECT_NAME":"STARLINK-4286","OBJECT_ID":"2022-076E","EPOCH":"2025-09-11T05:35:37.431168","MEAN_MOTION":15.08858103,"ECCENTRICITY":0.00012817,"INCLINATION":53.216,"RA_OF_ASC_NODE":189.734,"ARG_OF_PERICENTER":81.1225,"MEAN_ANOMALY":278.9913,"EPHEMERIS_TYPE":0,"CLASSIFICATION_TYPE":"U","NORAD_CAT_ID":52990,"ELEMENT_SET_NO":999,"REV_AT_EPOCH":17561,"BSTAR":0.00033151115,"MEAN_MOTION_DOT":4.995e-5,"MEAN_MOTION_DDOT":0},{"OBJECT_NAME":"STARLINK-4285","OBJECT_ID":"2022-076F","EPOCH":"2025-09-11T05:30:19.874016","MEAN_MOTION":15.08846229,"ECCENTRICITY":0.00015942,"INCLINATION":53.2172,"RA_OF_ASC_NODE":189.7506,"ARG_OF_PERICENTER":93.7903,"MEAN_ANOMALY":266.3271,"EPHEMERIS_TYPE":0,"CLASSIFICATION_TYPE":"U","NORAD_CAT_ID":52991,"ELEMENT_SET_NO":999,"REV_AT_EPOCH":17561,"BSTAR":-1.7637915e-5,"MEAN_MOTION_DOT":-5.69e-6,"MEAN_MOTION_DDOT":0},{"OBJECT_NAME":"STARLINK-4269","OBJECT_ID":"2022-076G","EPOCH":"2025-09-11T02:15:37.641888","MEAN_MOTION":15.08847374,"ECCENTRICITY":0.00013896,"INCLINATION":53.2153,"RA_OF_ASC_NODE":190.3675,"ARG_OF_PERICENTER":88.3453,"MEAN_ANOMALY":271.7698,"EPHEMERIS_TYPE":0,"CLASSIFICATION_TYPE":"U","NORAD_CAT_ID":52992,"ELEMENT_SET_NO":999,"REV_AT_EPOCH":17559,"BSTAR":7.0756598e-5,"MEAN_MOTION_DOT":8.39e-6,"MEAN_MOTION_DDOT":0},{"OBJECT_NAME":"STARLINK-4264","OBJECT_ID":"2022-076H","EPOCH":"2025-09-11T04:38:39.941376","MEAN_MOTION":15.08839244,"ECCENTRICITY":0.00013198,"INCLINATION":53.2176,"RA_OF_ASC_NODE":179.9104,"ARG_OF_PERICENTER":91.014,"MEAN_ANOMALY":269.1004,"EPHEMERIS_TYPE":0,"CLASSIFICATION_TYPE":"U","NORAD_CAT_ID":52993,"ELEMENT_SET_NO":999,"REV_AT_EPOCH":17574,"BSTAR":-1.4210942e-5,"MEAN_MOTION_DOT":-5.14e-6,"MEAN_MOTION_DDOT":0},{"OBJECT_NAME":"STARLINK-4256","OBJECT_ID":"2022-076J","EPOCH":"2025-09-11T04:33:19.125216","MEAN_MOTION":15.08873331,"ECCENTRICITY":0.00018188,"INCLINATION":53.2184,"RA_OF_ASC_NODE":179.9265,"ARG_OF_PERICENTER":91.1524,"MEAN_ANOMALY":268.9677,"EPHEMERIS_TYPE":0,"CLASSIFICATION_TYPE":"U","NORAD_CAT_ID":52994,"ELEMENT_SET_NO":999,"REV_AT_EPOCH":17574,"BSTAR":0.00027187073,"MEAN_MOTION_DOT":4.045e-5,"MEAN_MOTION_DDOT":0},{"OBJECT_NAME":"STARLINK-4296","OBJECT_ID":"2022-076K","EPOCH":"2025-09-11T04:22:45.193728","MEAN_MOTION":15.08849516,"ECCENTRICITY":0.00012951,"INCLINATION":53.2173,"RA_OF_ASC_NODE":179.9604,"ARG_OF_PERICENTER":89.7207,"MEAN_ANOMALY":270.3933,"EPHEMERIS_TYPE":0,"CLASSIFICATION_TYPE":"U","NORAD_CAT_ID":52995,"ELEMENT_SET_NO":999,"REV_AT_EPOCH":17574,"BSTAR":6.3272497e-5,"MEAN_MOTION_DOT":7.19e-6,"MEAN_MOTION_DDOT":0},{"OBJECT_NAME":"STARLINK-4295","OBJECT_ID":"2022-076L","EPOCH":"2025-09-11T05:06:35.063712","MEAN_MOTION":15.08828182,"ECCENTRICITY":0.00013745,"INCLINATION":53.2163,"RA_OF_ASC_NODE":180.1039,"ARG_OF_PERICENTER":92.7342,"MEAN_ANOMALY":267.3808,"EPHEMERIS_TYPE":0,"CLASSIFICATION_TYPE":"U","NORAD_CAT_ID":52996,"ELEMENT_SET_NO":999,"REV_AT_EPOCH":17574,"BSTAR":-0.00010683901,"MEAN_MOTION_DOT":-1.987e-5,"MEAN_MOTION_DDOT":0},{"OBJECT_NAME":"STARLINK-4254","OBJECT_ID":"2022-076N","EPOCH":"2025-09-11T04:06:52.876512","MEAN_MOTION":15.08813708,"ECCENTRICITY":0.00012709,"INCLINATION":53.2172,"RA_OF_ASC_NODE":179.9205,"ARG_OF_PERICENTER":86.1399,"MEAN_ANOMALY":273.9738,"EPHEMERIS_TYPE":0,"CLASSIFICATION_TYPE":"U","NORAD_CAT_ID":52998,"ELEMENT_SET_NO":999,"REV_AT_EPOCH":17574,"BSTAR":-0.0002432986,"MEAN_MOTION_DOT":-4.155e-5,"MEAN_MOTION_DDOT":0},{"OBJECT_NAME":"STARLINK-4217","OBJECT_ID":"2022-076P","EPOCH":"2025-09-11T03:56:15.978048","MEAN_MOTION":15.08839447,"ECCENTRICITY":0.00014059,"INCLINATION":53.218,"RA_OF_ASC_NODE":180.0442,"ARG_OF_PERICENTER":98.3702,"MEAN_ANOMALY":261.745,"EPHEMERIS_TYPE":0,"CLASSIFICATION_TYPE":"U","NORAD_CAT_ID":52999,"ELEMENT_SET_NO":999,"REV_AT_EPOCH":17574,"BSTAR":2.6710557e-5,"MEAN_MOTION_DOT":1.37e-6,"MEAN_MOTION_DDOT":0},{"OBJECT_NAME":"STARLINK-4194","OBJECT_ID":"2022-076Q","EPOCH":"2025-09-11T04:17:28.346784","MEAN_MOTION":15.08840282,"ECCENTRICITY":0.00015156,"INCLINATION":53.2166,"RA_OF_ASC_NODE":179.9765,"ARG_OF_PERICENTER":86.4592,"MEAN_ANOMALY":273.6573,"EPHEMERIS_TYPE":0,"CLASSIFICATION_TYPE":"U","NORAD_CAT_ID":53000,"ELEMENT_SET_NO":999,"REV_AT_EPOCH":17574,"BSTAR":3.9412035e-5,"MEAN_MOTION_DOT":3.39e-6,"MEAN_MOTION_DDOT":0}]
